IRIDIUM 7               
1 24793U 97020B   25176.95768673  .00000243  00000+0  77146-4 0  9992
2 24793  86.3983 173.2374 0002589  88.7790 271.3703 14.35943956473156
IRIDIUM 5               
1 24795U 97020D   25177.01451630  .00003452  00000+0  28055-3 0  9993
2 24795  86.3885  79.6631 0111141 106.2352 255.1140 14.94410688486817
IRIDIUM 4               
1 24796U 97020E   25177.42311558  .00000275  00000+0  86578-4 0  9998
2 24796  86.3980 169.9170 0002368  91.1496 268.9973 14.36847215473825
IRIDIUM 914             
1 24836U 97030A   25176.98366855  .00000279  00000+0  80728-4 0  9999
2 24836  86.3958 178.6711 0002543 127.3959 232.7472 14.40877385470493
IRIDIUM 16              
1 24841U 97030F   25177.09587338  .00000242  00000+0  72490-4 0  9996
2 24841  86.4047 201.5333 0004082  63.8535 296.3083 14.38719324468541
IRIDIUM 911             
1 24842U 97030G   25177.03328831  .00000348  00000+0  88845-4 0  9990
2 24842  86.4471 200.3201 0016431  71.4444 288.8542 14.47646318476344
IRIDIUM 17              
1 24870U 97034B   25177.08860982  .00000268  00000+0  82416-4 0  9997
2 24870  86.3957 231.0092 0002472  52.4814 307.6608 14.37833964464863
IRIDIUM 920             
1 24871U 97034C   25177.52504003  .00000264  00000+0  74926-4 0  9999
2 24871  86.3983 210.0397 0013463  57.5147 302.7352 14.41539374468189
